CCSDS_OMM_VERS = 2.0
CREATION_DATE  = 
ORIGINATOR     = 

OBJECT_NAME    = SL-16 R/B
OBJECT_ID      = 1996-051B
CENTER_NAME    = EARTH
REF_FRAME      = TEME
TIME_SYSTEM    = UTC
MEAN_ELEMENT_THEORY = SGP/SGP4

EPOCH          = 2025-11-12T14:26:21.776352
MEAN_MOTION    = 14.12392928
ECCENTRICITY   = .00181172
INCLINATION    = 70.7604
RA_OF_ASC_NODE = 63.0733
ARG_OF_PERICENTER = 299.3567
MEAN_ANOMALY   = 60.5743

EPHEMERIS_TYPE = 0
CLASSIFICATION_TYPE = U
NORAD_CAT_ID   = 24298
ELEMENT_SET_NO = 999
REV_AT_EPOCH   = 50511
BSTAR          = .37405072E-4
MEAN_MOTION_DOT = .2E-6
MEAN_MOTION_DDOT = 0

CCSDS_OMM_VERS = 2.0
CREATION_DATE  = 
ORIGINATOR     = 

OBJECT_NAME    = ORBVIEW 2 (SEASTAR)
OBJECT_ID      = 1997-037A
CENTER_NAME    = EARTH
REF_FRAME      = TEME
TIME_SYSTEM    = UTC
MEAN_ELEMENT_THEORY = SGP/SGP4

EPOCH          = 2025-11-12T10:53:02.782752
MEAN_MOTION    = 14.35382875
ECCENTRICITY   = .00030042
INCLINATION    = 98.8447
RA_OF_ASC_NODE = 112.7690
ARG_OF_PERICENTER = 60.3693
MEAN_ANOMALY   = 299.7790

EPHEMERIS_TYPE = 0
CLASSIFICATION_TYPE = U
NORAD_CAT_ID   = 24883
ELEMENT_SET_NO = 999
REV_AT_EPOCH   = 49165
BSTAR          = .30069348E-3
MEAN_MOTION_DOT = .816E-5
MEAN_MOTION_DDOT = 0

CCSDS_OMM_VERS = 2.0
CREATION_DATE  = 
ORIGINATOR     = 

OBJECT_NAME    = SL-16 R/B
OBJECT_ID      = 1998-043G
CENTER_NAME    = EARTH
REF_FRAME      = TEME
TIME_SYSTEM    = UTC
MEAN_ELEMENT_THEORY = SGP/SGP4

EPOCH          = 2025-11-12T15:03:36.557280
MEAN_MOTION    = 14.26014233
ECCENTRICITY   = .0009862
INCLINATION    = 98.8075
RA_OF_ASC_NODE = 264.2848
ARG_OF_PERICENTER = 0.5186
MEAN_ANOMALY   = 359.6002

EPHEMERIS_TYPE = 0
CLASSIFICATION_TYPE = U
NORAD_CAT_ID   = 25400
ELEMENT_SET_NO = 999
REV_AT_EPOCH   = 42230
BSTAR          = .10941158E-3
MEAN_MOTION_DOT = .216E-5
MEAN_MOTION_DDOT = 0

CCSDS_OMM_VERS = 2.0
CREATION_DATE  = 
ORIGINATOR     = 

OBJECT_NAME    = SL-16 R/B
OBJECT_ID      = 1998-045B
CENTER_NAME    = EARTH
REF_FRAME      = TEME
TIME_SYSTEM    = UTC
MEAN_ELEMENT_THEORY = SGP/SGP4

EPOCH          = 2025-11-12T14:29:43.414944
MEAN_MOTION    = 14.16169221
ECCENTRICITY   = .00086617
INCLINATION    = 71.0121
RA_OF_ASC_NODE = 67.7985
ARG_OF_PERICENTER = 218.9940
MEAN_ANOMALY   = 141.0560

EPHEMERIS_TYPE = 0
CLASSIFICATION_TYPE = U
NORAD_CAT_ID   = 25407
ELEMENT_SET_NO = 999
REV_AT_EPOCH   = 41052
BSTAR          = -.18153405E-4
MEAN_MOTION_DOT = -.84E-6
MEAN_MOTION_DDOT = 0

CCSDS_OMM_VERS = 2.0
CREATION_DATE  = 
ORIGINATOR     = 

OBJECT_NAME    = ISS (ZARYA)
OBJECT_ID      = 1998-067A
CENTER_NAME    = EARTH
REF_FRAME      = TEME
TIME_SYSTEM    = UTC
MEAN_ELEMENT_THEORY = SGP/SGP4

EPOCH          = 2025-11-12T22:26:21.947136
MEAN_MOTION    = 15.49593679
ECCENTRICITY   = .00041155
INCLINATION    = 51.6332
RA_OF_ASC_NODE = 290.0154
ARG_OF_PERICENTER = 64.1640
MEAN_ANOMALY   = 295.9773

EPHEMERIS_TYPE = 0
CLASSIFICATION_TYPE = U
NORAD_CAT_ID   = 25544
ELEMENT_SET_NO = 999
REV_AT_EPOCH   = 53823
BSTAR          = .34559918E-3
MEAN_MOTION_DOT = .19039E-3
MEAN_MOTION_DDOT = 0

CCSDS_OMM_VERS = 2.0
CREATION_DATE  = 
ORIGINATOR     = 

OBJECT_NAME    = CZ-4B R/B
OBJECT_ID      = 1999-025C
CENTER_NAME    = EARTH
REF_FRAME      = TEME
TIME_SYSTEM    = UTC
MEAN_ELEMENT_THEORY = SGP/SGP4

EPOCH          = 2025-11-12T20:35:43.551744
MEAN_MOTION    = 14.18232428
ECCENTRICITY   = .00364145
INCLINATION    = 98.6815
RA_OF_ASC_NODE = 358.7998
ARG_OF_PERICENTER = 322.2446
MEAN_ANOMALY   = 211.3718

EPHEMERIS_TYPE = 0
CLASSIFICATION_TYPE = U
NORAD_CAT_ID   = 25732
ELEMENT_SET_NO = 999
REV_AT_EPOCH   = 37160
BSTAR          = .10757349E-3
MEAN_MOTION_DOT = .179E-5
MEAN_MOTION_DDOT = 0

CCSDS_OMM_VERS = 2.0
CREATION_DATE  = 
ORIGINATOR     = 

OBJECT_NAME    = OKEAN-O
OBJECT_ID      = 1999-039A
CENTER_NAME    = EARTH
REF_FRAME      = TEME
TIME_SYSTEM    = UTC
MEAN_ELEMENT_THEORY = SGP/SGP4

EPOCH          = 2025-11-12T15:19:37.584480
MEAN_MOTION    = 14.80086049
ECCENTRICITY   = .0001439
INCLINATION    = 97.9647
RA_OF_ASC_NODE = 12.5952
ARG_OF_PERICENTER = 67.4884
MEAN_ANOMALY   = 292.6480

EPHEMERIS_TYPE = 0
CLASSIFICATION_TYPE = U
NORAD_CAT_ID   = 25860
ELEMENT_SET_NO = 999
REV_AT_EPOCH   = 41707
BSTAR          = .21602825E-3
MEAN_MOTION_DOT = .1585E-4
MEAN_MOTION_DDOT = 0

CCSDS_OMM_VERS = 2.0
CREATION_DATE  = 
ORIGINATOR     = 

OBJECT_NAME    = SL-16 R/B
OBJECT_ID      = 1999-039B
CENTER_NAME    = EARTH
REF_FRAME      = TEME
TIME_SYSTEM    = UTC
MEAN_ELEMENT_THEORY = SGP/SGP4

EPOCH          = 2025-11-12T20:46:07.724352
MEAN_MOTION    = 14.81523095
ECCENTRICITY   = .00134978
INCLINATION    = 98.0169
RA_OF_ASC_NODE = 11.0085
ARG_OF_PERICENTER = 277.3064
MEAN_ANOMALY   = 82.6614

EPHEMERIS_TYPE = 0
CLASSIFICATION_TYPE = U
NORAD_CAT_ID   = 25861
ELEMENT_SET_NO = 999
REV_AT_EPOCH   = 41956
BSTAR          = .19589324E-3
MEAN_MOTION_DOT = .1484E-4
MEAN_MOTION_DDOT = 0

CCSDS_OMM_VERS = 2.0
CREATION_DATE  = 
ORIGINATOR     = 

OBJECT_NAME    = DELTA 2 R/B
OBJECT_ID      = 1999-041E
CENTER_NAME    = EARTH
REF_FRAME      = TEME
TIME_SYSTEM    = UTC
MEAN_ELEMENT_THEORY = SGP/SGP4

EPOCH          = 2025-11-12T16:30:20.028384
MEAN_MOTION    = 14.11293185
ECCENTRICITY   = .0504846
INCLINATION    = 51.7636
RA_OF_ASC_NODE = 48.3967
ARG_OF_PERICENTER = 3.2117
MEAN_ANOMALY   = 357.1860

EPHEMERIS_TYPE = 0
CLASSIFICATION_TYPE = U
NORAD_CAT_ID   = 25876
ELEMENT_SET_NO = 999
REV_AT_EPOCH   = 34650
BSTAR          = .29391962E-3
MEAN_MOTION_DOT = .1584E-4
MEAN_MOTION_DDOT = 0

CCSDS_OMM_VERS = 2.0
CREATION_DATE  = 
ORIGINATOR     = 

OBJECT_NAME    = HELIOS 1B
OBJECT_ID      = 1999-064A
CENTER_NAME    = EARTH
REF_FRAME      = TEME
TIME_SYSTEM    = UTC
MEAN_ELEMENT_THEORY = SGP/SGP4

EPOCH          = 2025-11-12T15:52:12.320544
MEAN_MOTION    = 14.87097367
ECCENTRICITY   = .00026028
INCLINATION    = 98.1752
RA_OF_ASC_NODE = 210.4386
ARG_OF_PERICENTER = 83.9798
MEAN_ANOMALY   = 276.1714

EPHEMERIS_TYPE = 0
CLASSIFICATION_TYPE = U
NORAD_CAT_ID   = 25977
ELEMENT_SET_NO = 999
REV_AT_EPOCH   = 66786
BSTAR          = .59660594E-3
MEAN_MOTION_DOT = .53E-4
MEAN_MOTION_DDOT = 0

CCSDS_OMM_VERS = 2.0
CREATION_DATE  = 
ORIGINATOR     = 

OBJECT_NAME    = TERRA
OBJECT_ID      = 1999-068A
CENTER_NAME    = EARTH
REF_FRAME      = TEME
TIME_SYSTEM    = UTC
MEAN_ELEMENT_THEORY = SGP/SGP4

EPOCH          = 2025-11-12T22:29:38.731776
MEAN_MOTION    = 14.60902060
ECCENTRICITY   = .00023754
INCLINATION    = 97.9791
RA_OF_ASC_NODE = 9.7079
ARG_OF_PERICENTER = 161.2894
MEAN_ANOMALY   = 242.2709

EPHEMERIS_TYPE = 0
CLASSIFICATION_TYPE = U
NORAD_CAT_ID   = 25994
ELEMENT_SET_NO = 999
REV_AT_EPOCH   = 37803
BSTAR          = .26801632E-3
MEAN_MOTION_DOT = .1267E-4
MEAN_MOTION_DDOT = 0

CCSDS_OMM_VERS = 2.0
CREATION_DATE  = 
ORIGINATOR     = 

OBJECT_NAME    = SL-16 R/B
OBJECT_ID      = 2000-006B
CENTER_NAME    = EARTH
REF_FRAME      = TEME
TIME_SYSTEM    = UTC
MEAN_ELEMENT_THEORY = SGP/SGP4

EPOCH          = 2025-11-12T19:13:27.378912
MEAN_MOTION    = 14.15802320
ECCENTRICITY   = .00169146
INCLINATION    = 71.0035
RA_OF_ASC_NODE = 343.6096
ARG_OF_PERICENTER = 350.8267
MEAN_ANOMALY   = 9.2545

EPHEMERIS_TYPE = 0
CLASSIFICATION_TYPE = U
NORAD_CAT_ID   = 26070
ELEMENT_SET_NO = 999
REV_AT_EPOCH   = 33201
BSTAR          = -.25675472E-4
MEAN_MOTION_DOT = -.98E-6
MEAN_MOTION_DDOT = 0

