SL-16 R/B               
1 24298U 96051B   25316.60164093  .00000020  00000+0  37405-4 0  9996
2 24298  70.7604  63.0733 0018117 299.3567  60.5743 14.12392928505110
ORBVIEW 2 (SEASTAR)     
1 24883U 97037A   25316.45350443  .00000816  00000+0  30069-3 0  9991
2 24883  98.8447 112.7690 0003004  60.3693 299.7790 14.35382875491651
SL-16 R/B               
1 25400U 98043G   25316.62750645  .00000216  00000+0  10941-3 0  9993
2 25400  98.8075 264.2848 0009862   0.5186 359.6002 14.26014233422301
SL-16 R/B               
1 25407U 98045B   25316.60397471 -.00000084  00000+0 -18153-4 0  9993
2 25407  71.0121  67.7985 0008661 218.9940 141.0560 14.16169221410520
ISS (ZARYA)             
1 25544U 98067A   25316.93497624  .00019039  00000+0  34560-3 0  9993
2 25544  51.6332 290.0154 0004115  64.1640 295.9773 15.49593679538236
CZ-4B R/B               
1 25732U 99025C   25316.85814296  .00000179  00000+0  10757-3 0  9993
2 25732  98.6815 358.7998 0036414 322.2446 211.3718 14.18232428371603
OKEAN-O                 
1 25860U 99039A   25316.63862945  .00001585  00000+0  21603-3 0  9994
2 25860  97.9647  12.5952 0001439  67.4884 292.6480 14.80086049417073
SL-16 R/B               
1 25861U 99039B   25316.86536718  .00001484  00000+0  19589-3 0  9994
2 25861  98.0169  11.0085 0013497 277.3064  82.6614 14.81523095419565
DELTA 2 R/B             
1 25876U 99041E   25316.68773181  .00001584  00000+0  29392-3 0  9994
2 25876  51.7636  48.3967 0504846   3.2117 357.1860 14.11293185346509
HELIOS 1B               
1 25977U 99064A   25316.66125371  .00005300  00000+0  59661-3 0  9993
2 25977  98.1752 210.4386 0002602  83.9798 276.1714 14.87097367667865
TERRA                   
1 25994U 99068A   25316.93725384  .00001267  00000+0  26802-3 0  9995
2 25994  97.9791   9.7079 0002375 161.2894 242.2709 14.60902060378038
SL-16 R/B               
1 26070U 00006B   25316.80101133 -.00000098  00000+0 -25675-4 0  9992
2 26070  71.0035 343.6096 0016914 350.8267   9.2545 14.15802320332016
